{"type": "FeatureCollection", "features": [ {"type": "Feature", "properties": {"norad_id": 44476, "name": "INTELSAT 39 (IS-39)", "group": "intelsat", "lat": -0.017335594655924668, "lon": -129.3226266998059, "alt_km": 35786.84455408725, "timestamp": "2025-12-14T05:42:18.125515+00:00", "meta": {"OBJECT_NAME": "INTELSAT 39 (IS-39)", "OBJECT_ID": "2019-049B", "EPOCH": "2025-12-13T12:01:58.901952", "MEAN_MOTION": 1.00271212, "ECCENTRICITY": 0.00010877, "INCLINATION": 0.0029, "RA_OF_ASC_NODE": 9.4582, "ARG_OF_PERICENTER": 123.2888, "MEAN_ANOMALY": 192.1224, "EPHEMERIS_TYPE": 0, "CLASSIFICATION_TYPE": "U", "NORAD_CAT_ID": 44476, "ELEMENT_SET_NO": 999, "REV_AT_EPOCH": 2326, "BSTAR": 0, "MEAN_MOTION_DOT": 4.8e-07, "MEAN_MOTION_DDOT": 0}, "tle": {"line1": "1 44476U 19049B   25347.50137618  .00000048  00000+0  00000+0 0  9990", "line2": "2 44476   0.0029   9.4582 0001087 123.2888 192.1224  1.00271212 23264"}}, "geometry": {"type": "Point", "coordinates": [-129.3226266998059, -0.017335594655924668]}}, {"type": "Feature", "properties": {"norad_id": 46114, "name": "GALAXY 30 (G-30)", "group": "intelsat", "lat": 0.03475970945413112, "lon": 43.752784971522864, "alt_km": 35792.680012927216, "timestamp": "2025-12-14T05:42:18.125526+00:00", "meta": {"OBJECT_NAME": "GALAXY 30 (G-30)", "OBJECT_ID": "2020-056C", "EPOCH": "2025-12-13T14:33:59.343840", "MEAN_MOTION": 1.00273252, "ECCENTRICITY": 0.00021731, "INCLINATION": 0.0181, "RA_OF_ASC_NODE": 341.6276, "ARG_OF_PERICENTER": 282.0947, "MEAN_ANOMALY": 272.32, "EPHEMERIS_TYPE": 0, "CLASSIFICATION_TYPE": "U", "NORAD_CAT_ID": 46114, "ELEMENT_SET_NO": 999, "REV_AT_EPOCH": 1943, "BSTAR": 0, "MEAN_MOTION_DOT": 5.2e-07, "MEAN_MOTION_DDOT": 0}, "tle": {"line1": "1 46114U 20056C   25347.60693685  .00000052  00000+0  00000+0 0  9998", "line2": "2 46114   0.0181 341.6276 0002173 282.0947 272.3200  1.00273252 19437"}}, "geometry": {"type": "Point", "coordinates": [43.752784971522864, 0.03475970945413112]}}, {"type": "Feature", "properties": {"norad_id": 54026, "name": "GALAXY 33 (G-33)", "group": "intelsat", "lat": 0.02113804645091812, "lon": 35.741037235323674, "alt_km": 35792.10422737639, "timestamp": "2025-12-14T05:42:18.125538+00:00", "meta": {"OBJECT_NAME": "GALAXY 33 (G-33)", "OBJECT_ID": "2022-128A", "EPOCH": "2025-12-13T13:55:48.093600", "MEAN_MOTION": 1.00272134, "ECCENTRICITY": 0.00019215, "INCLINATION": 0.0049, "RA_OF_ASC_NODE": 342.6212, "ARG_OF_PERICENTER": 273.6399, "MEAN_ANOMALY": 262.2005, "EPHEMERIS_TYPE": 0, "CLASSIFICATION_TYPE": "U", "NORAD_CAT_ID": 54026, "ELEMENT_SET_NO": 999, "REV_AT_EPOCH": 1188, "BSTAR": 0, "MEAN_MOTION_DOT": 9.4e-07, "MEAN_MOTION_DDOT": 0}, "tle": {"line1": "1 54026U 22128A   25347.58041775  .00000094  00000+0  00000+0 0  9991", "line2": "2 54026   0.0049 342.6212 0001921 273.6399 262.2005  1.00272134 11889"}}, "geometry": {"type": "Point", "coordinates": [35.741037235323674, 0.02113804645091812]}}, {"type": "Feature", "properties": {"norad_id": 54027, "name": "GALAXY 34 (G-34)", "group": "intelsat", "lat": 0.03207164251601711, "lon": 39.800264592730876, "alt_km": 35791.248184684606, "timestamp": "2025-12-14T05:42:18.125549+00:00", "meta": {"OBJECT_NAME": "GALAXY 34 (G-34)", "OBJECT_ID": "2022-128B", "EPOCH": "2025-12-13T13:52:22.778688", "MEAN_MOTION": 1.00270439, "ECCENTRICITY": 0.00014197, "INCLINATION": 0.0218, "RA_OF_ASC_NODE": 356.0003, "ARG_OF_PERICENTER": 260.0494, "MEAN_ANOMALY": 265.6221, "EPHEMERIS_TYPE": 0, "CLASSIFICATION_TYPE": "U", "NORAD_CAT_ID": 54027, "ELEMENT_SET_NO": 999, "REV_AT_EPOCH": 1205, "BSTAR": 0, "MEAN_MOTION_DOT": 0, "MEAN_MOTION_DDOT": 0}, "tle": {"line1": "1 54027U 22128B   25347.57804142  .00000000  00000+0  00000+0 0  9993", "line2": "2 54027   0.0218 356.0003 0001419 260.0494 265.6221  1.00270439 12056"}}, "geometry": {"type": "Point", "coordinates": [39.800264592730876, 0.03207164251601711]}}, {"type": "Feature", "properties": {"norad_id": 54243, "name": "GALAXY 31 (G-31)", "group": "intelsat", "lat": 0.031213615939446392, "lon": 47.72765222663099, "alt_km": 35790.546033298444, "timestamp": "2025-12-14T05:42:18.125560+00:00", "meta": {"OBJECT_NAME": "GALAXY 31 (G-31)", "OBJECT_ID": "2022-153A", "EPOCH": "2025-12-13T12:58:34.699296", "MEAN_MOTION": 1.00270608, "ECCENTRICITY": 0.00014992, "INCLINATION": 0.0123, "RA_OF_ASC_NODE": 334.2317, "ARG_OF_PERICENTER": 302.455, "MEAN_ANOMALY": 239.4218, "EPHEMERIS_TYPE": 0, "CLASSIFICATION_TYPE": "U", "NORAD_CAT_ID": 54243, "ELEMENT_SET_NO": 999, "REV_AT_EPOCH": 527, "BSTAR": 0, "MEAN_MOTION_DOT": 0, "MEAN_MOTION_DDOT": 0}, "tle": {"line1": "1 54243U 22153A   25347.54067939  .00000000  00000+0  00000+0 0  9993", "line2": "2 54243   0.0123 334.2317 0001499 302.4550 239.4218  1.00270608  5278"}}, "geometry": {"type": "Point", "coordinates": [47.72765222663099, 0.031213615939446392]}}, {"type": "Feature", "properties": {"norad_id": 54244, "name": "GALAXY 32 (G-32)", "group": "intelsat", "lat": 0.028099029269998462, "lon": 77.75087166600197, "alt_km": 35792.35501977407, "timestamp": "2025-12-14T05:42:18.125572+00:00", "meta": {"OBJECT_NAME": "GALAXY 32 (G-32)", "OBJECT_ID": "2022-153B", "EPOCH": "2025-12-12T13:02:51.144864", "MEAN_MOTION": 1.00272099, "ECCENTRICITY": 0.00025848, "INCLINATION": 0.0111, "RA_OF_ASC_NODE": 11.8146, "ARG_OF_PERICENTER": 300.84, "MEAN_ANOMALY": 233.5475, "EPHEMERIS_TYPE": 0, "CLASSIFICATION_TYPE": "U", "NORAD_CAT_ID": 54244, "ELEMENT_SET_NO": 999, "REV_AT_EPOCH": 1127, "BSTAR": 0, "MEAN_MOTION_DOT": -1.63e-06, "MEAN_MOTION_DDOT": 0}, "tle": {"line1": "1 54244U 22153B   25346.54364751 -.00000163  00000+0  00000+0 0  9996", "line2": "2 54244   0.0111  11.8146 0002584 300.8400 233.5475  1.00272099 11279"}}, "geometry": {"type": "Point", "coordinates": [77.75087166600197, 0.028099029269998462]}}, {"type": "Feature", "properties": {"norad_id": 54741, "name": "GALAXY 35 (G-35)", "group": "intelsat", "lat": 0.022510051982232562, "lon": 75.63525352181371, "alt_km": 35796.29187989654, "timestamp": "2025-12-14T05:42:18.125584+00:00", "meta": {"OBJECT_NAME": "GALAXY 35 (G-35)", "OBJECT_ID": "2022-170A", "EPOCH": "2025-12-13T14:43:05.971584", "MEAN_MOTION": 1.00271162, "ECCENTRICITY": 0.00024245, "INCLINATION": 0.015, "RA_OF_ASC_NODE": 289.2214, "ARG_OF_PERICENTER": 339.2116, "MEAN_ANOMALY": 301.7905, "EPHEMERIS_TYPE": 0, "CLASSIFICATION_TYPE": "U", "NORAD_CAT_ID": 54741, "ELEMENT_SET_NO": 999, "REV_AT_EPOCH": 1103, "BSTAR": 0, "MEAN_MOTION_DOT": -1.47e-06, "MEAN_MOTION_DDOT": 0}, "tle": {"line1": "1 54741U 22170A   25347.61326356 -.00000147  00000+0  00000+0 0  9997", "line2": "2 54741   0.0150 289.2214 0002424 339.2116 301.7905  1.00271162 11034"}}, "geometry": {"type": "Point", "coordinates": [75.63525352181371, 0.022510051982232562]}}, {"type": "Feature", "properties": {"norad_id": 54742, "name": "GALAXY 36 (G-36)", "group": "intelsat", "lat": 0.012330465633879626, "lon": 79.73330527418806, "alt_km": 35787.08559654367, "timestamp": "2025-12-14T05:42:18.125596+00:00", "meta": {"OBJECT_NAME": "GALAXY 36 (G-36)", "OBJECT_ID": "2022-170B", "EPOCH": "2025-12-13T13:01:38.188704", "MEAN_MOTION": 1.00272152, "ECCENTRICITY": 3.546e-05, "INCLINATION": 0.0383, "RA_OF_ASC_NODE": 136.3807, "ARG_OF_PERICENTER": 167.8926, "MEAN_ANOMALY": 244.614, "EPHEMERIS_TYPE": 0, "CLASSIFICATION_TYPE": "U", "NORAD_CAT_ID": 54742, "ELEMENT_SET_NO": 999, "REV_AT_EPOCH": 1091, "BSTAR": 0, "MEAN_MOTION_DOT": -1.7e-06, "MEAN_MOTION_DDOT": 0}, "tle": {"line1": "1 54742U 22170B   25347.54280311 -.00000170  00000+0  00000+0 0  9996", "line2": "2 54742   0.0383 136.3807 0000354 167.8926 244.6140  1.00272152 10919"}}, "geometry": {"type": "Point", "coordinates": [79.73330527418806, 0.012330465633879626]}}, {"type": "Feature", "properties": {"norad_id": 57493, "name": "GALAXY 37 (G-37)", "group": "intelsat", "lat": 0.013266413758562561, "lon": 41.7459355293226, "alt_km": 35792.11916653906, "timestamp": "2025-12-14T05:42:18.125608+00:00", "meta": {"OBJECT_NAME": "GALAXY 37 (G-37)", "OBJECT_ID": "2023-112A", "EPOCH": "2025-12-13T13:50:40.797312", "MEAN_MOTION": 1.00272098, "ECCENTRICITY": 0.00020909, "INCLINATION": 0.0172, "RA_OF_ASC_NODE": 40.9867, "ARG_OF_PERICENTER": 226.5727, "MEAN_ANOMALY": 255.6204, "EPHEMERIS_TYPE": 0, "CLASSIFICATION_TYPE": "U", "NORAD_CAT_ID": 57493, "ELEMENT_SET_NO": 999, "REV_AT_EPOCH": 868, "BSTAR": 0, "MEAN_MOTION_DOT": 6.3e-07, "MEAN_MOTION_DDOT": 0}, "tle": {"line1": "1 57493U 23112A   25347.57686108  .00000063  00000+0  00000+0 0  9996", "line2": "2 57493   0.0172  40.9867 0002090 226.5727 255.6204  1.00272098  8681"}}, "geometry": {"type": "Point", "coordinates": [41.7459355293226, 0.013266413758562561]}}]}